[{"OBJECT_NAME":"SKYKRAFT-1A","OBJECT_ID":"2023-001AX","EPOCH":"2026-03-09T17:03:19.828224","MEAN_MOTION":15.28083228,"ECCENTRICITY":0.00112767,"INCLINATION":97.3349,"RA_OF_ASC_NODE":127.629,"ARG_OF_PERICENTER":121.5092,"MEAN_ANOMALY":238.7251,"EPHEMERIS_TYPE":0,"CLASSIFICATION_TYPE":"U","NORAD_CAT_ID":55054,"ELEMENT_SET_NO":999,"REV_AT_EPOCH":17652,"BSTAR":0.0003006872,"MEAN_MOTION_DOT":8.177e-5,"MEAN_MOTION_DDOT":0},{"OBJECT_NAME":"STARLINK-34229","OBJECT_ID":"2025-119T","EPOCH":"2026-03-08T16:38:06.744768","MEAN_MOTION":15.27603613,"ECCENTRICITY":0.00013273,"INCLINATION":42.9995,"RA_OF_ASC_NODE":312.9644,"ARG_OF_PERICENTER":274.4295,"MEAN_ANOMALY":85.6405,"EPHEMERIS_TYPE":0,"CLASSIFICATION_TYPE":"U","NORAD_CAT_ID":64250,"ELEMENT_SET_NO":999,"REV_AT_EPOCH":4401,"BSTAR":0.001387109,"MEAN_MOTION_DOT":0.00038133,"MEAN_MOTION_DDOT":0}]
