SKYKRAFT-1A             
1 55054U 23001AX  26068.71064616  .00008177  00000+0  30069-3 0  9991
2 55054  97.3349 127.6290 0011277 121.5092 238.7251 15.28083228176529
STARLINK-34229          
1 64250U 25119T   26067.69313362  .00038133  00000+0  13871-2 0  9998
2 64250  42.9995 312.9644 0001327 274.4295  85.6405 15.27603613 44013
